{
  "type": "FeatureCollection",
  "features": [
    {
      "type": "Feature",
      "properties": {
        "norad_id": 37846,
        "name": "GSAT0101 (GALILEO-PFM)",
        "group": "gnss",
        "lat": -17.89042311708541,
        "lon": 178.81164944966116,
        "alt_km": 23228.12596446711,
        "timestamp": "2025-12-16T03:53:27.297243+00:00",
        "meta_object_name": "GSAT0101 (GALILEO-PFM)",
        "meta_object_id": "2011-060A",
        "meta_epoch": "2025-12-12T21:37:17.093856",
        "meta_mean_motion": 1.70475751,
        "meta_eccentricity": 0.00030259,
        "meta_inclination": 57.0527,
        "meta_ra_of_asc_node": 346.8154,
        "meta_arg_of_pericenter": 315.3436,
        "meta_mean_anomaly": 44.6506,
        "meta_ephemeris_type": 0,
        "meta_classification_type": "U",
        "meta_norad_cat_id": 37846,
        "meta_element_set_no": 999,
        "meta_rev_at_epoch": 8794,
        "meta_bstar": 0,
        "meta_mean_motion_dot": -8.7e-07,
        "meta_mean_motion_ddot": 0,
        "tle_line1": "1 37846U 11060A   25346.90089229 -.00000087  00000+0  00000+0 0  9999",
        "tle_line2": "2 37846  57.0527 346.8154 0003025 315.3436  44.6506  1.70475751 87942"
      },
      "geometry": {
        "type": "Point",
        "coordinates": [
          178.81164944966116,
          -17.89042311708541
        ]
      }
    },
    {
      "type": "Feature",
      "properties": {
        "norad_id": 37847,
        "name": "GSAT0102 (GALILEO-FM2)",
        "group": "gnss",
        "lat": -50.51503433405187,
        "lon": -141.34409888702683,
        "alt_km": 23220.77103881269,
        "timestamp": "2025-12-16T03:53:27.297255+00:00",
        "meta_object_name": "GSAT0102 (GALILEO-FM2)",
        "meta_object_id": "2011-060B",
        "meta_epoch": "2025-12-12T05:47:25.345248",
        "meta_mean_motion": 1.70475905,
        "meta_eccentricity": 0.00049802,
        "meta_inclination": 57.0536,
        "meta_ra_of_asc_node": 346.8337,
        "meta_arg_of_pericenter": 309.4177,
        "meta_mean_anomaly": 51.2149,
        "meta_ephemeris_type": 0,
        "meta_classification_type": "U",
        "meta_norad_cat_id": 37847,
        "meta_element_set_no": 999,
        "meta_rev_at_epoch": 8794,
        "meta_bstar": 0,
        "meta_mean_motion_dot": -8.7e-07,
        "meta_mean_motion_ddot": 0,
        "tle_line1": "1 37847U 11060B   25346.24126557 -.00000087  00000+0  00000+0 0  9993",
        "tle_line2": "2 37847  57.0536 346.8337 0004980 309.4177  51.2149  1.70475905 87941"
      },
      "geometry": {
        "type": "Point",
        "coordinates": [
          -141.34409888702683,
          -50.51503433405187
        ]
      }
    },
    {
      "type": "Feature",
      "properties": {
        "norad_id": 37867,
        "name": "COSMOS 2476 (744)",
        "group": "gnss",
        "lat": 24.300355549494515,
        "lon": -112.98871187162722,
        "alt_km": 19117.14310007306,
        "timestamp": "2025-12-16T03:53:27.297267+00:00",
        "meta_object_name": "COSMOS 2476 (744)",
        "meta_object_id": "2011-064A",
        "meta_epoch": "2025-12-10T19:30:14.482368",
        "meta_mean_motion": 2.13101258,
        "meta_eccentricity": 0.00238922,
        "meta_inclination": 65.1614,
        "meta_ra_of_asc_node": 79.2364,
        "meta_arg_of_pericenter": 233.6597,
        "meta_mean_anomaly": 135.7131,
        "meta_ephemeris_type": 0,
        "meta_classification_type": "U",
        "meta_norad_cat_id": 37867,
        "meta_element_set_no": 999,
        "meta_rev_at_epoch": 10975,
        "meta_bstar": 0,
        "meta_mean_motion_dot": -2.4e-07,
        "meta_mean_motion_ddot": 0,
        "tle_line1": "1 37867U 11064A   25344.81266762 -.00000024  00000+0  00000+0 0  9994",
        "tle_line2": "2 37867  65.1614  79.2364 0023892 233.6597 135.7131  2.13101258109752"
      },
      "geometry": {
        "type": "Point",
        "coordinates": [
          -112.98871187162722,
          24.300355549494515
        ]
      }
    },
    {
      "type": "Feature",
      "properties": {
        "norad_id": 37868,
        "name": "COSMOS 2477 (745)",
        "group": "gnss",
        "lat": -23.04959014492998,
        "lon": 67.79667251995106,
        "alt_km": 19142.41299331893,
        "timestamp": "2025-12-16T03:53:27.297280+00:00",
        "meta_object_name": "COSMOS 2477 (745)",
        "meta_object_id": "2011-064B",
        "meta_epoch": "2025-12-15T06:06:12.573216",
        "meta_mean_motion": 2.1310289,
        "meta_eccentricity": 0.00211455,
        "meta_inclination": 65.1707,
        "meta_ra_of_asc_node": 79.1637,
        "meta_arg_of_pericenter": 234.5873,
        "meta_mean_anomaly": 123.1925,
        "meta_ephemeris_type": 0,
        "meta_classification_type": "U",
        "meta_norad_cat_id": 37868,
        "meta_element_set_no": 999,
        "meta_rev_at_epoch": 10983,
        "meta_bstar": 0,
        "meta_mean_motion_dot": -5.6e-07,
        "meta_mean_motion_ddot": 0,
        "tle_line1": "1 37868U 11064B   25349.25431219 -.00000056  00000+0  00000+0 0  9994",
        "tle_line2": "2 37868  65.1707  79.1637 0021145 234.5873 123.1925  2.13102890109838"
      },
      "geometry": {
        "type": "Point",
        "coordinates": [
          67.79667251995106,
          -23.04959014492998
        ]
      }
    },
    {
      "type": "Feature",
      "properties": {
        "norad_id": 37869,
        "name": "COSMOS 2475 (743)",
        "group": "gnss",
        "lat": -58.330078963052586,
        "lon": 30.651970932822167,
        "alt_km": 19085.97121460775,
        "timestamp": "2025-12-16T03:53:27.297292+00:00",
        "meta_object_name": "COSMOS 2475 (743)",
        "meta_object_id": "2011-064C",
        "meta_epoch": "2025-12-15T07:18:38.805120",
        "meta_mean_motion": 2.13101556,
        "meta_eccentricity": 0.00263599,
        "meta_inclination": 65.1776,
        "meta_ra_of_asc_node": 79.182,
        "meta_arg_of_pericenter": 248.7523,
        "meta_mean_anomaly": 103.5515,
        "meta_ephemeris_type": 0,
        "meta_classification_type": "U",
        "meta_norad_cat_id": 37869,
        "meta_element_set_no": 999,
        "meta_rev_at_epoch": 10984,
        "meta_bstar": 0,
        "meta_mean_motion_dot": -5.6e-07,
        "meta_mean_motion_ddot": 0,
        "tle_line1": "1 37869U 11064C   25349.30461580 -.00000056  00000+0  00000+0 0  9995",
        "tle_line2": "2 37869  65.1776  79.1820 0026359 248.7523 103.5515  2.13101556109846"
      },
      "geometry": {
        "type": "Point",
        "coordinates": [
          30.651970932822167,
          -58.330078963052586
        ]
      }
    },
    {
      "type": "Feature",
      "properties": {
        "norad_id": 37948,
        "name": "BEIDOU-2 IGSO-5 (C10)",
        "group": "gnss",
        "lat": -25.916536131947243,
        "lon": -112.10425458847135,
        "alt_km": 35874.559184957514,
        "timestamp": "2025-12-16T03:53:27.297303+00:00",
        "meta_object_name": "BEIDOU-2 IGSO-5 (C10)",
        "meta_object_id": "2011-073A",
        "meta_epoch": "2025-12-12T18:24:47.608416",
        "meta_mean_motion": 1.00291151,
        "meta_eccentricity": 0.01101752,
        "meta_inclination": 48.0199,
        "meta_ra_of_asc_node": 273.857,
        "meta_arg_of_pericenter": 222.308,
        "meta_mean_anomaly": 314.7254,
        "meta_ephemeris_type": 0,
        "meta_classification_type": "U",
        "meta_norad_cat_id": 37948,
        "meta_element_set_no": 999,
        "meta_rev_at_epoch": 5126,
        "meta_bstar": 0,
        "meta_mean_motion_dot": -2.21e-06,
        "meta_mean_motion_ddot": 0,
        "tle_line1": "1 37948U 11073A   25346.76721769 -.00000221  00000+0  00000+0 0  9992",
        "tle_line2": "2 37948  48.0199 273.8570 0110175 222.3080 314.7254  1.00291151 51268"
      },
      "geometry": {
        "type": "Point",
        "coordinates": [
          -112.10425458847135,
          -25.916536131947243
        ]
      }
    },
    {
      "type": "Feature",
      "properties": {
        "norad_id": 37951,
        "name": "LUCH 5A (SDCM/PRN 140)",
        "group": "gnss",
        "lat": -6.717801875913702,
        "lon": -49.70748884934384,
        "alt_km": 35771.667683184314,
        "timestamp": "2025-12-16T03:53:27.297324+00:00",
        "meta_object_name": "LUCH 5A (SDCM/PRN 140)",
        "meta_object_id": "2011-074B",
        "meta_epoch": "2025-12-14T22:46:22.445760",
        "meta_mean_motion": 1.00275459,
        "meta_eccentricity": 0.0005401,
        "meta_inclination": 8.2854,
        "meta_ra_of_asc_node": 76.5536,
        "meta_arg_of_pericenter": 182.4892,
        "meta_mean_anomaly": 333.5039,
        "meta_ephemeris_type": 0,
        "meta_classification_type": "U",
        "meta_norad_cat_id": 37951,
        "meta_element_set_no": 999,
        "meta_rev_at_epoch": 5120,
        "meta_bstar": 0,
        "meta_mean_motion_dot": -3.2e-07,
        "meta_mean_motion_ddot": 0,
        "tle_line1": "1 37951U 11074B   25348.94887090 -.00000032  00000+0  00000+0 0  9999",
        "tle_line2": "2 37951   8.2854  76.5536 0005401 182.4892 333.5039  1.00275459 51207"
      },
      "geometry": {
        "type": "Point",
        "coordinates": [
          -49.70748884934384,
          -6.717801875913702
        ]
      }
    }
  ]
}